[{"OBJECT_NAME":"NUSAT-50 (NANCY ROMAN)","OBJECT_ID":"2024-149AB","EPOCH":"2026-03-09T19:15:16.765632","MEAN_MOTION":15.29713355,"ECCENTRICITY":0.00025229,"INCLINATION":97.3817,"RA_OF_ASC_NODE":150.7693,"ARG_OF_PERICENTER":238.0469,"MEAN_ANOMALY":122.0527,"EPHEMERIS_TYPE":0,"CLASSIFICATION_TYPE":"U","NORAD_CAT_ID":60493,"ELEMENT_SET_NO":999,"REV_AT_EPOCH":8693,"BSTAR":0.0004225155,"MEAN_MOTION_DOT":0.00012094,"MEAN_MOTION_DDOT":0},{"OBJECT_NAME":"STARLINK-34774","OBJECT_ID":"2025-263A","EPOCH":"2026-03-09T04:13:32.424672","MEAN_MOTION":15.27561475,"ECCENTRICITY":0.000182,"INCLINATION":43.0043,"RA_OF_ASC_NODE":353.3213,"ARG_OF_PERICENTER":252.6515,"MEAN_ANOMALY":107.4138,"EPHEMERIS_TYPE":0,"CLASSIFICATION_TYPE":"U","NORAD_CAT_ID":66485,"ELEMENT_SET_NO":999,"REV_AT_EPOCH":1882,"BSTAR":0.0011355911,"MEAN_MOTION_DOT":0.00031101,"MEAN_MOTION_DDOT":0}]
